ONEWEB-0319             
1 49105U 21075AG  24209.21750867  .00000050  00000+0  94466-4 0  9994
2 49105  87.9191 143.2757 0002443  89.8898 270.2513 13.17648985143738
ONEWEB-0329             
1 49107U 21075AJ  24209.22558382  .00000083  00000+0  18162-3 0  9999
2 49107  87.9195 143.2778 0002124  85.6861 274.4513 13.17651211143717
ONEWEB-0330             
1 49108U 21075AK  24209.22720268  .00000067  00000+0  14049-3 0  9996
2 49108  87.9191 143.2786 0002001  86.7201 273.4159 13.17649502143756
ONEWEB-0292             
1 49186U 21083A   24209.22381636  .00000374  00000+0  98784-3 0  9992
2 49186  87.8913  97.5870 0001985  78.0480 282.0871 13.13470862140358
ONEWEB-0303             
1 49187U 21083B   24209.43578982  .00000021  00000+0  19922-4 0  9995
2 49187  87.9143 112.7731 0002128  80.3520 279.7852 13.18685737140358
ONEWEB-0306             
1 49188U 21083C   24209.42629571  .00000005  00000+0 -21268-4 0  9995
2 49188  87.9141 112.7620 0001751  75.6135 284.5192 13.18688138140397
ONEWEB-0307             
1 49189U 21083D   24209.21825135  .00000413  00000+0  10972-2 0  9997
2 49189  87.8913  97.5886 0001478  81.0981 279.0315 13.13472824140354
